CCSDS_OMM_VERS = 2.0
CREATION_DATE  = 
ORIGINATOR     = 

OBJECT_NAME    = STARLINK-36065
OBJECT_ID      = 2025-283W
CENTER_NAME    = EARTH
REF_FRAME      = TEME
TIME_SYSTEM    = UTC
MEAN_ELEMENT_THEORY = SGP/SGP4

EPOCH          = 2025-12-25T18:00:02.000160
MEAN_MOTION    = 15.59640740
ECCENTRICITY   = .0000924
INCLINATION    = 53.1594
RA_OF_ASC_NODE = 8.9499
ARG_OF_PERICENTER = 86.7175
MEAN_ANOMALY   = 313.9623

EPHEMERIS_TYPE = 0
CLASSIFICATION_TYPE = U
NORAD_CAT_ID   = 66898
ELEMENT_SET_NO = 999
REV_AT_EPOCH   = 452
BSTAR          = -.27574E-1
MEAN_MOTION_DOT = -.1969574E-1
MEAN_MOTION_DDOT = 0

CCSDS_OMM_VERS = 2.0
CREATION_DATE  = 
ORIGINATOR     = 

OBJECT_NAME    = STARLINK-36064
OBJECT_ID      = 2025-283X
CENTER_NAME    = EARTH
REF_FRAME      = TEME
TIME_SYSTEM    = UTC
MEAN_ELEMENT_THEORY = SGP/SGP4

EPOCH          = 2025-12-25T18:00:02.000160
MEAN_MOTION    = 15.59642476
ECCENTRICITY   = .0000904
INCLINATION    = 53.1597
RA_OF_ASC_NODE = 8.9464
ARG_OF_PERICENTER = 85.1919
MEAN_ANOMALY   = 317.4031

EPHEMERIS_TYPE = 0
CLASSIFICATION_TYPE = U
NORAD_CAT_ID   = 66899
ELEMENT_SET_NO = 999
REV_AT_EPOCH   = 446
BSTAR          = -.27586E-1
MEAN_MOTION_DOT = -.1970439E-1
MEAN_MOTION_DDOT = 0

CCSDS_OMM_VERS = 2.0
CREATION_DATE  = 
ORIGINATOR     = 

OBJECT_NAME    = STARLINK-36074
OBJECT_ID      = 2025-283Y
CENTER_NAME    = EARTH
REF_FRAME      = TEME
TIME_SYSTEM    = UTC
MEAN_ELEMENT_THEORY = SGP/SGP4

EPOCH          = 2025-12-25T18:00:02.000160
MEAN_MOTION    = 15.59643520
ECCENTRICITY   = .0000867
INCLINATION    = 53.1596
RA_OF_ASC_NODE = 8.9420
ARG_OF_PERICENTER = 89.1154
MEAN_ANOMALY   = 315.3983

EPHEMERIS_TYPE = 0
CLASSIFICATION_TYPE = U
NORAD_CAT_ID   = 66900
ELEMENT_SET_NO = 999
REV_AT_EPOCH   = 452
BSTAR          = -.27653E-1
MEAN_MOTION_DOT = -.1974673E-1
MEAN_MOTION_DDOT = 0

CCSDS_OMM_VERS = 2.0
CREATION_DATE  = 
ORIGINATOR     = 

OBJECT_NAME    = STARLINK-36043
OBJECT_ID      = 2025-283Z
CENTER_NAME    = EARTH
REF_FRAME      = TEME
TIME_SYSTEM    = UTC
MEAN_ELEMENT_THEORY = SGP/SGP4

EPOCH          = 2025-12-25T18:00:02.000160
MEAN_MOTION    = 15.59644480
ECCENTRICITY   = .0000923
INCLINATION    = 53.1595
RA_OF_ASC_NODE = 8.9377
ARG_OF_PERICENTER = 89.9481
MEAN_ANOMALY   = 316.4821

EPHEMERIS_TYPE = 0
CLASSIFICATION_TYPE = U
NORAD_CAT_ID   = 66901
ELEMENT_SET_NO = 999
REV_AT_EPOCH   = 452
BSTAR          = -.27694E-1
MEAN_MOTION_DOT = -.1977338E-1
MEAN_MOTION_DDOT = 0

CCSDS_OMM_VERS = 2.0
CREATION_DATE  = 
ORIGINATOR     = 

OBJECT_NAME    = STARLINK-35983
OBJECT_ID      = 2025-283AA
CENTER_NAME    = EARTH
REF_FRAME      = TEME
TIME_SYSTEM    = UTC
MEAN_ELEMENT_THEORY = SGP/SGP4

EPOCH          = 2025-12-25T18:00:02.000160
MEAN_MOTION    = 15.59646483
ECCENTRICITY   = .0000928
INCLINATION    = 53.1594
RA_OF_ASC_NODE = 8.9337
ARG_OF_PERICENTER = 86.2863
MEAN_ANOMALY   = 322.0606

EPHEMERIS_TYPE = 0
CLASSIFICATION_TYPE = U
NORAD_CAT_ID   = 66902
ELEMENT_SET_NO = 999
REV_AT_EPOCH   = 452
BSTAR          = -.27762E-1
MEAN_MOTION_DOT = -.1981742E-1
MEAN_MOTION_DDOT = 0

CCSDS_OMM_VERS = 2.0
CREATION_DATE  = 
ORIGINATOR     = 

OBJECT_NAME    = STARLINK-36077
OBJECT_ID      = 2025-283AB
CENTER_NAME    = EARTH
REF_FRAME      = TEME
TIME_SYSTEM    = UTC
MEAN_ELEMENT_THEORY = SGP/SGP4

EPOCH          = 2025-12-25T18:00:02.000160
MEAN_MOTION    = 15.59640736
ECCENTRICITY   = .0000895
INCLINATION    = 53.1595
RA_OF_ASC_NODE = 8.9304
ARG_OF_PERICENTER = 86.6127
MEAN_ANOMALY   = 323.6519

EPHEMERIS_TYPE = 0
CLASSIFICATION_TYPE = U
NORAD_CAT_ID   = 66903
ELEMENT_SET_NO = 999
REV_AT_EPOCH   = 452
BSTAR          = -.27575E-1
MEAN_MOTION_DOT = -.196959E-1
MEAN_MOTION_DDOT = 0

CCSDS_OMM_VERS = 2.0
CREATION_DATE  = 
ORIGINATOR     = 

OBJECT_NAME    = STARLINK-36059
OBJECT_ID      = 2025-283AC
CENTER_NAME    = EARTH
REF_FRAME      = TEME
TIME_SYSTEM    = UTC
MEAN_ELEMENT_THEORY = SGP/SGP4

EPOCH          = 2025-12-25T18:00:02.000160
MEAN_MOTION    = 15.59639584
ECCENTRICITY   = .0000901
INCLINATION    = 53.1595
RA_OF_ASC_NODE = 8.9255
ARG_OF_PERICENTER = 90.0938
MEAN_ANOMALY   = 322.0891

EPHEMERIS_TYPE = 0
CLASSIFICATION_TYPE = U
NORAD_CAT_ID   = 66904
ELEMENT_SET_NO = 999
REV_AT_EPOCH   = 452
BSTAR          = -.27565E-1
MEAN_MOTION_DOT = -.1968931E-1
MEAN_MOTION_DDOT = 0

CCSDS_OMM_VERS = 2.0
CREATION_DATE  = 
ORIGINATOR     = 

OBJECT_NAME    = STARLINK-36075
OBJECT_ID      = 2025-283AD
CENTER_NAME    = EARTH
REF_FRAME      = TEME
TIME_SYSTEM    = UTC
MEAN_ELEMENT_THEORY = SGP/SGP4

EPOCH          = 2025-12-25T18:00:02.000160
MEAN_MOTION    = 15.59646041
ECCENTRICITY   = .0000937
INCLINATION    = 53.1597
RA_OF_ASC_NODE = 8.9220
ARG_OF_PERICENTER = 83.3419
MEAN_ANOMALY   = 330.7516

EPHEMERIS_TYPE = 0
CLASSIFICATION_TYPE = U
NORAD_CAT_ID   = 66905
ELEMENT_SET_NO = 999
REV_AT_EPOCH   = 452
BSTAR          = -.27649E-1
MEAN_MOTION_DOT = -.1974661E-1
MEAN_MOTION_DDOT = 0

CCSDS_OMM_VERS = 2.0
CREATION_DATE  = 
ORIGINATOR     = 

OBJECT_NAME    = 1998-067XS
OBJECT_ID      = 1998-067XS
CENTER_NAME    = EARTH
REF_FRAME      = TEME
TIME_SYSTEM    = UTC
MEAN_ELEMENT_THEORY = SGP/SGP4

EPOCH          = 2025-12-25T11:42:06.367680
MEAN_MOTION    = 15.51255627
ECCENTRICITY   = .0002728
INCLINATION    = 51.6324
RA_OF_ASC_NODE = 79.1676
ARG_OF_PERICENTER = 267.8022
MEAN_ANOMALY   = 92.2655

EPHEMERIS_TYPE = 0
CLASSIFICATION_TYPE = U
NORAD_CAT_ID   = 66906
ELEMENT_SET_NO = 999
REV_AT_EPOCH   = 359
BSTAR          = .47654E-3
MEAN_MOTION_DOT = .28077E-3
MEAN_MOTION_DDOT = 0

CCSDS_OMM_VERS = 2.0
CREATION_DATE  = 
ORIGINATOR     = 

OBJECT_NAME    = 1998-067XT
OBJECT_ID      = 1998-067XT
CENTER_NAME    = EARTH
REF_FRAME      = TEME
TIME_SYSTEM    = UTC
MEAN_ELEMENT_THEORY = SGP/SGP4

EPOCH          = 2025-12-24T10:39:56.166048
MEAN_MOTION    = 15.52879993
ECCENTRICITY   = .00038856
INCLINATION    = 51.6313
RA_OF_ASC_NODE = 84.2012
ARG_OF_PERICENTER = 298.2919
MEAN_ANOMALY   = 61.7678

EPHEMERIS_TYPE = 0
CLASSIFICATION_TYPE = U
NORAD_CAT_ID   = 66907
ELEMENT_SET_NO = 999
REV_AT_EPOCH   = 343
BSTAR          = .10726177E-2
MEAN_MOTION_DOT = .67981E-3
MEAN_MOTION_DDOT = 0

CCSDS_OMM_VERS = 2.0
CREATION_DATE  = 
ORIGINATOR     = 

OBJECT_NAME    = 1998-067XU
OBJECT_ID      = 1998-067XU
CENTER_NAME    = EARTH
REF_FRAME      = TEME
TIME_SYSTEM    = UTC
MEAN_ELEMENT_THEORY = SGP/SGP4

EPOCH          = 2025-12-24T10:38:25.805472
MEAN_MOTION    = 15.52977314
ECCENTRICITY   = .00038638
INCLINATION    = 51.6323
RA_OF_ASC_NODE = 84.1936
ARG_OF_PERICENTER = 296.7785
MEAN_ANOMALY   = 63.2809

EPHEMERIS_TYPE = 0
CLASSIFICATION_TYPE = U
NORAD_CAT_ID   = 66908
ELEMENT_SET_NO = 999
REV_AT_EPOCH   = 343
BSTAR          = .10585814E-2
MEAN_MOTION_DOT = .67317E-3
MEAN_MOTION_DDOT = 0

CCSDS_OMM_VERS = 2.0
CREATION_DATE  = 
ORIGINATOR     = 

OBJECT_NAME    = SILVERSAT
OBJECT_ID      = 1998-067XV
CENTER_NAME    = EARTH
REF_FRAME      = TEME
TIME_SYSTEM    = UTC
MEAN_ELEMENT_THEORY = SGP/SGP4

EPOCH          = 2025-12-24T12:08:54.950784
MEAN_MOTION    = 15.53202951
ECCENTRICITY   = .00038249
INCLINATION    = 51.6310
RA_OF_ASC_NODE = 83.8633
ARG_OF_PERICENTER = 300.8028
MEAN_ANOMALY   = 59.2585

EPHEMERIS_TYPE = 0
CLASSIFICATION_TYPE = U
NORAD_CAT_ID   = 66909
ELEMENT_SET_NO = 999
REV_AT_EPOCH   = 344
BSTAR          = .11617624E-2
MEAN_MOTION_DOT = .74602E-3
MEAN_MOTION_DDOT = 0

CCSDS_OMM_VERS = 2.0
CREATION_DATE  = 
ORIGINATOR     = 

OBJECT_NAME    = 1998-067XW
OBJECT_ID      = 1998-067XW
CENTER_NAME    = EARTH
REF_FRAME      = TEME
TIME_SYSTEM    = UTC
MEAN_ELEMENT_THEORY = SGP/SGP4

EPOCH          = 2025-12-25T05:05:39.017760
MEAN_MOTION    = 15.53228928
ECCENTRICITY   = .0003837
INCLINATION    = 51.6308
RA_OF_ASC_NODE = 80.3284
ARG_OF_PERICENTER = 278.3824
MEAN_ANOMALY   = 81.6731

EPHEMERIS_TYPE = 0
CLASSIFICATION_TYPE = U
NORAD_CAT_ID   = 66910
ELEMENT_SET_NO = 999
REV_AT_EPOCH   = 355
BSTAR          = .10169E-2
MEAN_MOTION_DOT = .65225E-3
MEAN_MOTION_DDOT = 0

CCSDS_OMM_VERS = 2.0
CREATION_DATE  = 
ORIGINATOR     = 

OBJECT_NAME    = 1998-067XX
OBJECT_ID      = 1998-067XX
CENTER_NAME    = EARTH
REF_FRAME      = TEME
TIME_SYSTEM    = UTC
MEAN_ELEMENT_THEORY = SGP/SGP4

EPOCH          = 2025-12-25T14:15:47.536416
MEAN_MOTION    = 15.53814599
ECCENTRICITY   = .000352
INCLINATION    = 51.6302
RA_OF_ASC_NODE = 78.3793
ARG_OF_PERICENTER = 286.8967
MEAN_ANOMALY   = 73.1637

EPHEMERIS_TYPE = 0
CLASSIFICATION_TYPE = U
NORAD_CAT_ID   = 66911
ELEMENT_SET_NO = 999
REV_AT_EPOCH   = 360
BSTAR          = .11507E-2
MEAN_MOTION_DOT = .75561E-3
MEAN_MOTION_DDOT = 0

CCSDS_OMM_VERS = 2.0
CREATION_DATE  = 
ORIGINATOR     = 

OBJECT_NAME    = 1998-067XY
OBJECT_ID      = 1998-067XY
CENTER_NAME    = EARTH
REF_FRAME      = TEME
TIME_SYSTEM    = UTC
MEAN_ELEMENT_THEORY = SGP/SGP4

EPOCH          = 2025-12-25T14:35:00.692160
MEAN_MOTION    = 15.52392127
ECCENTRICITY   = .0003813
INCLINATION    = 51.6317
RA_OF_ASC_NODE = 78.4687
ARG_OF_PERICENTER = 296.0372
MEAN_ANOMALY   = 64.0225

EPHEMERIS_TYPE = 0
CLASSIFICATION_TYPE = U
NORAD_CAT_ID   = 66912
ELEMENT_SET_NO = 999
REV_AT_EPOCH   = 360
BSTAR          = .8056E-3
MEAN_MOTION_DOT = .49931E-3
MEAN_MOTION_DDOT = 0

